ACS3                    
1 59588U 24077B   24261.70758592  .00030268  00000+0  34724-1 0  9992
2 59588  97.4232 308.4010 0042980 215.8112 144.0156 13.68997747 20052
